FENGYUN 3D              
1 43010U 17072A   26193.23633940  .00000127  00000+0  81879-4 0  9992
2 43010  99.0136 168.1128 0001726  21.1648 338.9598 14.19744762448548
NOAA 20 (JPSS-1)        
1 43013U 17073A   26193.30590548  .00000012  00000+0  26548-4 0  9995
2 43013  98.7774 132.5459 0001277 126.9784 233.1510 14.19516117448038
GOES 17                 
1 43226U 18022A   26193.11747532 -.00000181  00000+0  00000+0 0  9990
2 43226   0.9984  85.2989 0000520  88.6386  68.8748  1.00272084 30677
SENTINEL-3B             
1 43437U 18039A   26193.22606097  .00000035  00000+0  32510-4 0  9997
2 43437  98.6236 260.3977 0001066 119.2246 240.9041 14.26735854427692
FENGYUN 2H              
1 43491U 18050A   26193.07961487 -.00000127  00000+0  00000+0 0  9997
2 43491   3.0915  78.7821 0002283 132.2529 186.7834  1.00267474 29686
METOP-C                 
1 43689U 18087A   26193.19629084  .00000037  00000+0  36587-4 0  9996
2 43689  98.6631 252.3412 0002217  97.6893 262.4537 14.21518503398388
GEO-KOMPSAT-2A          
1 43823U 18100A   26193.30320566 -.00000342  00000+0  00000+0 0  9994
2 43823   0.0256 116.1536 0001935 345.6162  65.8482  1.00271145 27882
METEOR-M2 2             
1 44387U 19038A   26193.25224669  .00000160  00000+0  89052-4 0  9998
2 44387  98.9155 180.9087 0000936   9.5230 350.5965 14.24372697364860
ARKTIKA-M 1             
1 47719U 21016A   26188.42887598 -.00000257  00000+0  00000+0 0  9997
2 47719  63.2524  54.6812 7295086 270.0380  14.5466  2.00614486 39194
FENGYUN 3E              
1 49008U 21062A   26193.28790551  .00000204  00000+0  11677-3 0  9990
2 49008  98.7500 196.4161 0002389  44.6156 315.5212 14.19906471260142
GOES 18                 
1 51850U 22021A   26193.24489377  .00000099  00000+0  00000+0 0  9997
2 51850   0.0163 129.9775 0000615  65.2398  46.0856  1.00272739  6844
NOAA 21 (JPSS-2)        
1 54234U 22150A   26193.26776449  .00000001  00000+0  20961-4 0  9996
2 54234  98.7061 131.6358 0002761 109.8104 250.3370 14.19540788190105
METEOSAT-12 (MTG-I1)    
1 54743U 22170C   26193.20646209 -.00000006  00000+0  00000+0 0  9990
2 54743   0.7220  19.1495 0003773  82.7936 262.2075  1.00267051 13224
TIANMU-1 03             
1 55973U 23039A   26193.26632520  .00009215  00000+0  17825-3 0  9995
2 55973  97.5236   8.2317 0002834  34.3686 325.7747 15.47987710184716
TIANMU-1 04             
1 55974U 23039B   26193.31054554  .00010562  00000+0  19962-3 0  9998
2 55974  97.5171   7.4336 0003318  23.6804 336.4598 15.48611625184733
TIANMU-1 05             
1 55975U 23039C   26193.31296727  .00010052  00000+0  19475-3 0  9992
2 55975  97.5216   7.8859 0003230  52.9952 307.1593 15.47912474184702
TIANMU-1 06             
1 55976U 23039D   26193.31553859  .00009829  00000+0  18658-3 0  9997
2 55976  97.5224   8.5498 0003348  45.1781 314.9741 15.48508326184735
FENGYUN 3G              
1 56232U 23055A   26193.26152344  .00013605  00000+0  21518-3 0  9995
2 56232  49.9908 216.7167 0007152  42.4832 317.6688 15.53698620183902
METEOR-M2 3             
1 57166U 23091A   26193.32261586 -.00000021  00000+0  94516-5 0  9997
2 57166  98.6070 247.7849 0005145  96.6912 263.4853 14.24048754158099
TIANMU-1 07             
1 57399U 23101A   26193.34601122  .00003760  00000+0  13163-3 0  9992
2 57399  97.2584 243.4387 0003924  70.4543 289.7121 15.30094501165495
TIANMU-1 08             
1 57400U 23101B   26193.31258528  .00003616  00000+0  12667-3 0  9998
2 57400  97.2573 243.1730 0004861  54.1488 306.0204 15.30098006165481
TIANMU-1 09             
1 57401U 23101C   26193.29542286  .00003816  00000+0  13337-3 0  9990
2 57401  97.2531 242.5592 0004539  71.2971 288.8763 15.30138387165488
TIANMU-1 10             
1 57402U 23101D   26193.32891605  .00003804  00000+0  13306-3 0  9990
2 57402  97.2610 243.6681 0005854  62.0995 298.0839 15.30111917165480
FENGYUN 3F              
1 57490U 23111A   26193.34168478 -.00000005  00000+0  17891-4 0  9990
2 57490  98.6826 262.8805 0001323  77.6380 282.4945 14.19943105152433
ARKTIKA-M 2             
1 58584U 23198A   26191.19028483  .00000186  00000+0  00000+0 0  9990
2 58584  63.2187 151.7914 6909064 267.3543  18.7503  2.00608615 18787
TIANMU-1 11             
1 58645U 23205A   26193.34607137  .00003088  00000+0  11836-3 0  9992
2 58645  97.3443 214.5111 0006768 274.9328  85.1138 15.27245741141366
TIANMU-1 12             
1 58646U 23205B   26193.31815547  .00003329  00000+0  12805-3 0  9991
2 58646  97.3432 214.2316 0005618 247.6158 112.4486 15.27076564141343
TIANMU-1 13             
1 58647U 23205C   26193.35158339  .00003339  00000+0  12846-3 0  9991
2 58647  97.3459 214.5435 0005516 224.3827 135.6970 15.27069583141348
TIANMU-1 14             
1 58648U 23205D   26193.20500734  .00003264  00000+0  12548-3 0  9992
2 58648  97.3395 213.5614 0006173 232.9255 127.1421 15.27112413141322
TIANMU-1 19             
1 58660U 23208A   26193.30697215  .00005189  00000+0  17077-3 0  9991
2 58660  97.4521 309.7437 0004302 209.5260 150.5740 15.31948001141179
