OBJECT_NAME,OBJECT_ID,EPOCH,MEAN_MOTION,ECCENTRICITY,INCLINATION,RA_OF_ASC_NODE,ARG_OF_PERICENTER,MEAN_ANOMALY,EPHEMERIS_TYPE,CLASSIFICATION_TYPE,NORAD_CAT_ID,ELEMENT_SET_NO,REV_AT_EPOCH,BSTAR,MEAN_MOTION_DOT,MEAN_MOTION_DDOT
FENGYUN 3D,2017-072A,2026-07-12T05:40:19.724160,14.19744762,.00017261,99.0136,168.1128,21.1648,338.9598,0,U,43010,999,44854,.81879305E-4,.127E-5,0
NOAA 20 (JPSS-1),2017-073A,2026-07-12T07:20:30.233472,14.19516117,.00012778,98.7774,132.5459,126.9784,233.1510,0,U,43013,999,44803,.26548312E-4,.12E-6,0
GOES 17,2018-022A,2026-07-12T02:49:09.867648,1.00272084,.000052,0.9984,85.2989,88.6386,68.8748,0,U,43226,999,3067,0,-.181E-5,0
SENTINEL-3B,2018-039A,2026-07-12T05:25:31.667808,14.26735854,.00010665,98.6236,260.3977,119.2246,240.9041,0,U,43437,999,42769,.32510194E-4,.35E-6,0
FENGYUN 2H,2018-050A,2026-07-12T01:54:38.724768,1.00267474,.00022834,3.0915,78.7821,132.2529,186.7834,0,U,43491,999,2968,0,-.127E-5,0
METOP-C,2018-087A,2026-07-12T04:42:39.528576,14.21518503,.00022171,98.6631,252.3412,97.6893,262.4537,0,U,43689,999,39838,.36586599E-4,.37E-6,0
GEO-KOMPSAT-2A,2018-100A,2026-07-12T07:16:36.969024,1.00271145,.00019352,0.0256,116.1536,345.6162,65.8482,0,U,43823,999,2788,0,-.342E-5,0
METEOR-M2 2,2019-038A,2026-07-12T06:03:14.114016,14.24372697,.00009366,98.9155,180.9087,9.5230,350.5965,0,U,44387,999,36486,.8905245E-4,.16E-5,0
ARKTIKA-M 1,2021-016A,2026-07-07T10:17:34.884672,2.00614486,.72950864,63.2524,54.6812,270.0380,14.5466,0,U,47719,999,3919,0,-.257E-5,0
FENGYUN 3E,2021-062A,2026-07-12T06:54:35.036064,14.19906471,.0002389,98.7500,196.4161,44.6156,315.5212,0,U,49008,999,26014,.11676533E-3,.204E-5,0
GOES 18,2022-021A,2026-07-12T05:52:38.821728,1.00272739,.0000615,0.0163,129.9775,65.2398,46.0856,0,U,51850,999,684,0,.99E-6,0
NOAA 21 (JPSS-2),2022-150A,2026-07-12T06:25:34.851936,14.19540788,.0002761,98.7061,131.6358,109.8104,250.3370,0,U,54234,999,19010,.20960904E-4,.1E-7,0
METEOSAT-12 (MTG-I1),2022-170C,2026-07-12T04:57:18.324576,1.00267051,.00037737,0.7220,19.1495,82.7936,262.2075,0,U,54743,999,1322,0,-.6E-7,0
TIANMU-1 03,2023-039A,2026-07-12T06:23:30.497280,15.47987710,.00028342,97.5236,8.2317,34.3686,325.7747,0,U,55973,999,18471,.17824631E-3,.9215E-4,0
TIANMU-1 04,2023-039B,2026-07-12T07:27:11.134656,15.48611625,.00033186,97.5171,7.4336,23.6804,336.4598,0,U,55974,999,18473,.19962045E-3,.10562E-3,0
TIANMU-1 05,2023-039C,2026-07-12T07:30:40.372128,15.47912474,.00032302,97.5216,7.8859,52.9952,307.1593,0,U,55975,999,18470,.19474704E-3,.10052E-3,0
TIANMU-1 06,2023-039D,2026-07-12T07:34:22.534176,15.48508326,.00033485,97.5224,8.5498,45.1781,314.9741,0,U,55976,999,18473,.18658081E-3,.9829E-4,0
FENGYUN 3G,2023-055A,2026-07-12T06:16:35.625216,15.53698620,.00071526,49.9908,216.7167,42.4832,317.6688,0,U,56232,999,18390,.21517983E-3,.13605E-3,0
METEOR-M2 3,2023-091A,2026-07-12T07:44:34.010304,14.24048754,.00051456,98.6070,247.7849,96.6912,263.4853,0,U,57166,999,15809,.9451612E-5,-.21E-6,0
TIANMU-1 07,2023-101A,2026-07-12T08:18:15.369408,15.30094501,.00039246,97.2584,243.4387,70.4543,289.7121,0,U,57399,999,16549,.13163063E-3,.376E-4,0
TIANMU-1 08,2023-101B,2026-07-12T07:30:07.368192,15.30098006,.00048616,97.2573,243.1730,54.1488,306.0204,0,U,57400,999,16548,.12666811E-3,.3616E-4,0
TIANMU-1 09,2023-101C,2026-07-12T07:05:24.535104,15.30138387,.0004539,97.2531,242.5592,71.2971,288.8763,0,U,57401,999,16548,.13337047E-3,.3816E-4,0
TIANMU-1 10,2023-101D,2026-07-12T07:53:38.346720,15.30111917,.00058549,97.2610,243.6681,62.0995,298.0839,0,U,57402,999,16548,.13305803E-3,.3804E-4,0
FENGYUN 3F,2023-111A,2026-07-12T08:12:01.564992,14.19943105,.00013237,98.6826,262.8805,77.6380,282.4945,0,U,57490,999,15243,.17890829E-4,-.5E-7,0
ARKTIKA-M 2,2023-198A,2026-07-10T04:34:00.609312,2.00608615,.69090643,63.2187,151.7914,267.3543,18.7503,0,U,58584,999,1878,0,.186E-5,0
TIANMU-1 11,2023-205A,2026-07-12T08:18:20.566368,15.27245741,.00067687,97.3443,214.5111,274.9328,85.1138,0,U,58645,999,14136,.11836461E-3,.3088E-4,0
TIANMU-1 12,2023-205B,2026-07-12T07:38:08.632608,15.27076564,.00056188,97.3432,214.2316,247.6158,112.4486,0,U,58646,999,14134,.12805493E-3,.3329E-4,0
TIANMU-1 13,2023-205C,2026-07-12T08:26:16.804896,15.27069583,.00055167,97.3459,214.5435,224.3827,135.6970,0,U,58647,999,14134,.12846216E-3,.3339E-4,0
TIANMU-1 14,2023-205D,2026-07-12T04:55:12.634176,15.27112413,.00061732,97.3395,213.5614,232.9255,127.1421,0,U,58648,999,14132,.12547991E-3,.3264E-4,0
TIANMU-1 19,2023-208A,2026-07-12T07:22:02.393760,15.31948001,.00043025,97.4521,309.7437,209.5260,150.5740,0,U,58660,999,14117,.17077486E-3,.5189E-4,0
